NORAD_CAT_ID,OBJECT_NAME,OBJECT_TYPE,EPOCH,MEAN_MOTION,ECCENTRICITY,INCLINATION,RA_OF_ASC_NODE,ARG_OF_PERICENTER,MEAN_ANOMALY,BSTAR,MEAN_MOTION_DOT,MEAN_MOTION_DDOT,TLE_LINE0,TLE_LINE1,TLE_LINE2,SEMIMAJOR_AXIS,PERIOD,APOGEE,PERIGEE,DECAYED
52338.0,STARLINK-3815,PAYLOAD,2024-06-30 21:07:47,15.12928708,0.0001135,53.2176,77.4991,95.9428,264.1695,-8.1368e-05,-1.749e-05,0.0,0 STARLINK-3815,1 52338U 22045H   24182.88040776 -.00001749  00000-0 -81368-4 0  9994,2 52338  53.2176  77.4991 0001135  95.9428 264.1695 15.12928708122822,6905.411,95.18,528.06,526.492,0.0
52338.0,STARLINK-3815,PAYLOAD,2024-06-30 22:42:54,15.12928679,0.0001134,53.2175,77.2007,95.7853,264.327,-8.0286e-05,-1.73e-05,0.0,0 STARLINK-3815,1 52338U 22045H   24182.94646849 -.00001730  00000-0 -80286-4 0  9992,2 52338  53.2175  77.2007 0001134  95.7853 264.3270 15.12928679122835,6905.411,95.18,528.059,526.493,0.0
52338.0,STARLINK-3815,PAYLOAD,2024-07-01 16:09:18,15.12930115,0.0001108,53.2179,73.9173,91.7908,268.3213,-2.0676e-05,-6.68e-06,0.0,0 STARLINK-3815,1 52338U 22045H   24183.67313270 -.00000668  00000-0 -20676-4 0  9998,2 52338  53.2179  73.9173 0001108  91.7908 268.3213 15.12930115122945,6905.407,95.18,528.037,526.507,0.0
52338.0,STARLINK-3815,PAYLOAD,2024-07-01 22:29:49,15.1292963,0.0001099,53.2179,72.7234,91.0293,269.0826,-2.0327e-05,-6.62e-06,0.0,0 STARLINK-3815,1 52338U 22045H   24183.93737619 -.00000662  00000-0 -20327-4 0  9991,2 52338  53.2179  72.7234 0001099  91.0293 269.0826 15.12929630122981,6905.408,95.18,528.032,526.514,0.0
52338.0,STARLINK-3815,PAYLOAD,2024-07-02 09:35:42,15.12935388,0.0001157,53.218,70.6346,86.7914,273.3212,5.7747e-05,7.3e-06,0.0,0 STARLINK-3815,1 52338U 22045H   24184.39979493  .00000730  00000-0  57747-4 0  9990,2 52338  53.2180  70.6346 0001157  86.7914 273.3212 15.12935388123053,6905.391,95.179,528.055,526.457,0.0
52338.0,STARLINK-3815,PAYLOAD,2024-07-02 22:16:43,15.12932408,0.0001166,53.2182,68.2469,86.4439,273.6688,5.4226e-05,6.67e-06,0.0,0 STARLINK-3815,1 52338U 22045H   24184.92828217  .00000667  00000-0  54226-4 0  9994,2 52338  53.2182  68.2469 0001166  86.4439 273.6688 15.12932408123132,6905.4,95.179,528.07,526.46,0.0
52338.0,STARLINK-3815,PAYLOAD,2024-07-03 20:28:26,15.12968607,0.000216,53.2165,64.0697,13.3074,346.7977,0.00025919,4.327e-05,0.0,0 STARLINK-3815,1 52338U 22045H   24185.85308803  .00004327  00000-0  25919-3 0  9994,2 52338  53.2165  64.0697 0002160  13.3074 346.7977 15.12968607123277,6905.29,95.177,528.646,525.663,0.0
52338.0,STARLINK-3815,PAYLOAD,2024-07-03 22:03:33,15.12975886,6.66e-05,53.2172,63.7668,133.3232,226.7817,0.00023284,3.858e-05,0.0,0 STARLINK-3815,1 52338U 22045H   24185.91913883  .00003858  00000-0  23284-3 0  9992,2 52338  53.2172  63.7668 0000666 133.3232 226.7817 15.12975886123285,6905.267,95.177,527.592,526.673,0.0
52338.0,STARLINK-3815,PAYLOAD,2024-07-04 01:13:43,15.1304065,9.61e-05,53.2181,63.1707,90.5545,269.5559,0.0007028,0.00012286,0.0,0 STARLINK-3815,1 52338U 22045H   24186.05119762  .00012286  00000-0  70280-3 0  9995,2 52338  53.2181  63.1707 0000961  90.5545 269.5559 15.13040650123306,6905.07,95.173,527.599,526.272,0.0
52338.0,STARLINK-3815,PAYLOAD,2024-07-04 09:09:15,15.13090594,4.8e-05,53.2179,61.6809,136.6689,223.4343,0.0009616,0.00016956,0.0,0 STARLINK-3815,1 52338U 22045H   24186.38143130  .00016956  00000-0  96160-3 0  9990,2 52338  53.2179  61.6809 0000480 136.6689 223.4343 15.13090594123353,6904.918,95.169,527.115,526.452,0.0
52338.0,STARLINK-3815,PAYLOAD,2024-07-04 20:14:57,15.13174014,8.38e-05,53.217,59.5899,89.4426,270.6664,0.0014372,0.00025582,0.0,0 STARLINK-3815,1 52338U 22045H   24186.84372618  .00025582  00000-0  14372-2 0  9995,2 52338  53.2170  59.5899 0000838  89.4426 270.6664 15.13174014123428,6904.665,95.164,527.108,525.951,0.0
52338.0,STARLINK-3815,PAYLOAD,2024-07-04 21:50:02,15.13199132,0.0001056,53.2183,59.2892,110.9754,249.1353,0.0015885,0.00028338,0.0,0 STARLINK-3815,1 52338U 22045H   24186.90975485  .00028338  00000-0  15885-2 0  9995,2 52338  53.2183  59.2892 0001056 110.9754 249.1353 15.13199132123434,6904.588,95.163,527.182,525.724,0.0
52338.0,STARLINK-3815,PAYLOAD,2024-07-05 08:55:43,15.13273956,6.31e-05,53.2182,57.2036,112.0452,248.0609,0.0018777,0.00033648,0.0,0 STARLINK-3815,1 52338U 22045H   24187.37202975  .00033648  00000-0  18777-2 0  9997,2 52338  53.2182  57.2036 0000631 112.0452 248.0609 15.13273956123504,6904.361,95.158,526.661,525.79,0.0
52338.0,STARLINK-3815,PAYLOAD,2024-07-05 20:01:19,15.13408167,4.83e-05,53.2168,55.1105,115.4374,244.667,0.001732,0.0003112,0.0,0 STARLINK-3815,1 52338U 22045H   24187.83425617  .00031120  00000-0  17320-2 0  9994,2 52338  53.2168  55.1105 0000483 115.4374 244.6670 15.13408167123578,6903.952,95.149,526.151,525.484,0.0
52338.0,STARLINK-3815,PAYLOAD,2024-07-05 21:36:25,15.13410549,3.07e-05,53.216,54.8119,113.0011,247.1016,0.0017182,0.00030871,0.0,0 STARLINK-3815,1 52338U 22045H   24187.90029536  .00030871  00000-0  17182-2 0  9990,2 52338  53.2160  54.8119 0000307 113.0011 247.1016 15.13410549123588,6903.945,95.149,526.022,525.598,0.0
52338.0,STARLINK-3815,PAYLOAD,2024-07-06 00:46:36,15.13425801,9.83e-05,53.2165,54.2124,122.8181,237.2908,0.0017455,0.00031382,0.0,0 STARLINK-3815,1 52338U 22045H   24188.03236357  .00031382  00000-0  17455-2 0  9997,2 52338  53.2165  54.2124 0000983 122.8181 237.2908 15.13425801123609,6903.899,95.148,526.442,525.085,0.0
52338.0,STARLINK-3815,PAYLOAD,2024-07-06 08:42:02,15.13468025,3.99e-05,53.2195,52.7256,101.2248,258.8791,0.0017016,0.00030618,0.0,0 STARLINK-3815,1 52338U 22045H   24188.36252806  .00030618  00000-0  17016-2 0  9994,2 52338  53.2195  52.7256 0000399 101.2248 258.8791 15.13468025123656,6903.77,95.146,525.911,525.36,0.0
52338.0,STARLINK-3815,PAYLOAD,2024-07-06 15:02:22,15.13534728,1.83e-05,53.2164,51.5313,338.7832,21.3154,0.0011095,0.00019867,0.0,0 STARLINK-3815,1 52338U 22045H   24188.62665332  .00019867  00000-0  11095-2 0  9999,2 52338  53.2164  51.5313 0000183 338.7832  21.3154 15.13534728123694,6903.568,95.142,525.559,525.306,0.0
52338.0,STARLINK-3815,PAYLOAD,2024-07-06 21:22:42,15.13554376,3.29e-05,53.218,50.3333,129.3447,230.7577,0.0012324,0.0002212,0.0,0 STARLINK-3815,1 52338U 22045H   24188.89077228  .00022120  00000-0  12324-2 0  9991,2 52338  53.2180  50.3333 0000329 129.3447 230.7577 15.13554376123730,6903.508,95.14,525.6,525.146,0.0
52338.0,STARLINK-3815,PAYLOAD,2024-07-07 00:32:52,15.13576204,6.88e-05,53.2185,49.7348,149.5998,210.5036,0.0010246,0.00018341,0.0,0 STARLINK-3815,1 52338U 22045H   24189.02283129  .00018341  00000-0  10246-2 0  9997,2 52338  53.2185  49.7348 0000688 149.5998 210.5036 15.13576204123758,6903.441,95.139,525.781,524.832,0.0
52338.0,STARLINK-3815,PAYLOAD,2024-07-07 19:33:49,15.13672565,3.25e-05,53.2184,46.1582,341.3278,18.7704,0.00044548,7.814e-05,0.0,0 STARLINK-3815,1 52338U 22045H   24189.81515379  .00007814  00000-0  44548-3 0  9995,2 52338  53.2184  46.1582 0000325 341.3278  18.7704 15.13672565123879,6903.148,95.133,525.238,524.789,0.0
52338.0,STARLINK-3815,PAYLOAD,2024-07-07 21:08:53,15.13678644,4.7e-06,53.2193,45.8585,144.3661,215.7336,0.00046985,8.26e-05,0.0,0 STARLINK-3815,1 52338U 22045H   24189.88117677  .00008260  00000-0  46985-3 0  9994,2 52338  53.2193  45.8585 0000047 144.3661 215.7336 15.13678644123881,6903.13,95.132,525.027,524.963,0.0
52338.0,STARLINK-3815,PAYLOAD,2024-07-08 20:55:00,15.13749996,6.1e-06,53.2189,41.3766,221.0705,139.0285,0.00046596,8.206e-05,0.0,0 STARLINK-3815,1 52338U 22045H   24190.87152829  .00008206  00000-0  46596-3 0  9991,2 52338  53.2189  41.3766 0000061 221.0705 139.0285 15.13749996124034,6902.913,95.128,524.82,524.736,0.0
52338.0,STARLINK-3815,PAYLOAD,2024-07-09 14:20:47,15.13794186,2.75e-05,53.2184,38.0889,297.4416,62.6551,0.00031384,5.433e-05,0.0,0 STARLINK-3815,1 52338U 22045H   24191.59777085  .00005433  00000-0  31384-3 0  9996,2 52338  53.2184  38.0889 0000275 297.4416  62.6551 15.13794186124141,6902.779,95.125,524.834,524.454,0.0
52338.0,STARLINK-3815,PAYLOAD,2024-07-09 20:41:03,15.13815269,1.92e-05,53.2184,36.8941,283.2803,76.817,0.00042488,7.469e-05,0.0,0 STARLINK-3815,1 52338U 22045H   24191.86184400  .00007469  00000-0  42488-3 0  9997,2 52338  53.2184  36.8941 0000192 283.2803  76.8170 15.13815269124181,6902.715,95.124,524.712,524.447,0.0
52338.0,STARLINK-3815,PAYLOAD,2024-07-10 06:11:27,15.13834972,1.98e-05,53.2193,35.1052,296.6543,63.4431,0.00045612,8.046e-05,0.0,0 STARLINK-3815,1 52338U 22045H   24192.25795999  .00008046  00000-0  45612-3 0  9996,2 52338  53.2193  35.1052 0000198 296.6543  63.4431 15.13834972124242,6902.655,95.123,524.656,524.383,0.0
52338.0,STARLINK-3815,PAYLOAD,2024-07-10 14:06:47,15.13860211,9.51e-05,53.2171,33.6031,331.1966,28.8976,0.00033115,5.76e-05,0.0,0 STARLINK-3815,1 52338U 22045H   24192.58805198  .00005760  00000-0  33115-3 0  9990,2 52338  53.2171  33.6031 0000951 331.1966  28.8976 15.13860211124298,6902.578,95.121,525.099,523.787,0.0
52338.0,STARLINK-3815,PAYLOAD,2024-07-10 20:27:03,15.13874952,7.6e-05,53.2185,32.4133,4.3762,355.7239,0.00039759,6.981e-05,0.0,0 STARLINK-3815,1 52338U 22045H   24192.85212119  .00006981  00000-0  39759-3 0  9991,2 52338  53.2185  32.4133 0000760   4.3762 355.7239 15.13874952124330,6902.533,95.12,524.923,523.874,0.0
52338.0,STARLINK-3815,PAYLOAD,2024-07-11 04:22:21,15.138977,0.0001221,53.2184,30.9194,220.9407,139.1495,0.00049663,8.803e-05,0.0,0 STARLINK-3815,1 52338U 22045H   24193.18219084  .00008803  00000-0  49663-3 0  9996,2 52338  53.2184  30.9194 0001221 220.9407 139.1495 15.13897700124383,6902.464,95.119,525.172,523.486,0.0
52338.0,STARLINK-3815,PAYLOAD,2024-07-12 05:43:19,15.13975564,7.66e-05,53.2182,26.1407,325.8626,34.2319,0.00048084,8.533e-05,0.0,0 STARLINK-3815,1 52338U 22045H   24194.23841441  .00008533  00000-0  48084-3 0  9997,2 52338  53.2182  26.1407 0000766 325.8626  34.2319 15.13975564124549,6902.227,95.114,524.621,523.564,0.0
